CCSDS_OMM_VERS = 2.0
CREATION_DATE  = 
ORIGINATOR     = 

OBJECT_NAME    = UNKNOWN
OBJECT_ID      = 
CENTER_NAME    = EARTH
REF_FRAME      = TEME
TIME_SYSTEM    = UTC
MEAN_ELEMENT_THEORY = SGP/SGP4

EPOCH          = 2025-12-12T07:10:11.240544
MEAN_MOTION    = 12.92680026
ECCENTRICITY   = .00297597
INCLINATION    = 90.2425
RA_OF_ASC_NODE = 2.8477
ARG_OF_PERICENTER = 59.8507
MEAN_ANOMALY   = 300.5554

EPHEMERIS_TYPE = 0
CLASSIFICATION_TYPE = U
NORAD_CAT_ID   = 270306
ELEMENT_SET_NO = 999
REV_AT_EPOCH   = 24047
BSTAR          = .86547287E-3
MEAN_MOTION_DOT = .243E-5
MEAN_MOTION_DDOT = 0

CCSDS_OMM_VERS = 2.0
CREATION_DATE  = 
ORIGINATOR     = 

OBJECT_NAME    = UNKNOWN
OBJECT_ID      = 
CENTER_NAME    = EARTH
REF_FRAME      = TEME
TIME_SYSTEM    = UTC
MEAN_ELEMENT_THEORY = SGP/SGP4

EPOCH          = 2025-12-12T22:14:19.032288
MEAN_MOTION    = 13.65103817
ECCENTRICITY   = .00913686
INCLINATION    = 82.6930
RA_OF_ASC_NODE = 219.5448
ARG_OF_PERICENTER = 283.9160
MEAN_ANOMALY   = 75.1840

EPHEMERIS_TYPE = 0
CLASSIFICATION_TYPE = U
NORAD_CAT_ID   = 270307
ELEMENT_SET_NO = 999
REV_AT_EPOCH   = 27693
BSTAR          = .17670451E-1
MEAN_MOTION_DOT = .14759E-3
MEAN_MOTION_DDOT = 0

CCSDS_OMM_VERS = 2.0
CREATION_DATE  = 
ORIGINATOR     = 

OBJECT_NAME    = UNKNOWN
OBJECT_ID      = 
CENTER_NAME    = EARTH
REF_FRAME      = TEME
TIME_SYSTEM    = UTC
MEAN_ELEMENT_THEORY = SGP/SGP4

EPOCH          = 2025-12-10T17:54:43.535808
MEAN_MOTION    = 12.99021417
ECCENTRICITY   = .02210799
INCLINATION    = 82.5847
RA_OF_ASC_NODE = 340.6689
ARG_OF_PERICENTER = 264.9431
MEAN_ANOMALY   = 92.6414

EPHEMERIS_TYPE = 0
CLASSIFICATION_TYPE = U
NORAD_CAT_ID   = 270308
ELEMENT_SET_NO = 999
REV_AT_EPOCH   = 27270
BSTAR          = .11283504E-1
MEAN_MOTION_DOT = .376E-4
MEAN_MOTION_DDOT = 0

CCSDS_OMM_VERS = 2.0
CREATION_DATE  = 
ORIGINATOR     = 

OBJECT_NAME    = UNKNOWN
OBJECT_ID      = 
CENTER_NAME    = EARTH
REF_FRAME      = TEME
TIME_SYSTEM    = UTC
MEAN_ELEMENT_THEORY = SGP/SGP4

EPOCH          = 2025-12-12T16:36:27.112608
MEAN_MOTION    = 14.92837597
ECCENTRICITY   = .00355236
INCLINATION    = 98.3897
RA_OF_ASC_NODE = 323.9670
ARG_OF_PERICENTER = 312.5426
MEAN_ANOMALY   = 47.2793

EPHEMERIS_TYPE = 0
CLASSIFICATION_TYPE = U
NORAD_CAT_ID   = 270309
ELEMENT_SET_NO = 999
REV_AT_EPOCH   = 26783
BSTAR          = .99285894E-3
MEAN_MOTION_DOT = .10349E-3
MEAN_MOTION_DDOT = 0

CCSDS_OMM_VERS = 2.0
CREATION_DATE  = 
ORIGINATOR     = 

OBJECT_NAME    = UNKNOWN
OBJECT_ID      = 
CENTER_NAME    = EARTH
REF_FRAME      = TEME
TIME_SYSTEM    = UTC
MEAN_ELEMENT_THEORY = SGP/SGP4

EPOCH          = 2025-12-11T15:15:26.429184
MEAN_MOTION    = 13.48334215
ECCENTRICITY   = .01923815
INCLINATION    = 82.9388
RA_OF_ASC_NODE = 300.3196
ARG_OF_PERICENTER = 246.7224
MEAN_ANOMALY   = 111.3565

EPHEMERIS_TYPE = 0
CLASSIFICATION_TYPE = U
NORAD_CAT_ID   = 270310
ELEMENT_SET_NO = 999
REV_AT_EPOCH   = 23133
BSTAR          = .10912221E-2
MEAN_MOTION_DOT = .769E-5
MEAN_MOTION_DDOT = 0

CCSDS_OMM_VERS = 2.0
CREATION_DATE  = 
ORIGINATOR     = 

OBJECT_NAME    = UNKNOWN
OBJECT_ID      = 
CENTER_NAME    = EARTH
REF_FRAME      = TEME
TIME_SYSTEM    = UTC
MEAN_ELEMENT_THEORY = SGP/SGP4

EPOCH          = 2025-12-12T19:07:06.870720
MEAN_MOTION    = 14.50938515
ECCENTRICITY   = .00203449
INCLINATION    = 98.8012
RA_OF_ASC_NODE = 332.0165
ARG_OF_PERICENTER = 170.1848
MEAN_ANOMALY   = 189.9746

EPHEMERIS_TYPE = 0
CLASSIFICATION_TYPE = U
NORAD_CAT_ID   = 270311
ELEMENT_SET_NO = 999
REV_AT_EPOCH   = 24597
BSTAR          = .32377932E-2
MEAN_MOTION_DOT = .12797E-3
MEAN_MOTION_DDOT = 0

CCSDS_OMM_VERS = 2.0
CREATION_DATE  = 
ORIGINATOR     = 

OBJECT_NAME    = UNKNOWN
OBJECT_ID      = 
CENTER_NAME    = EARTH
REF_FRAME      = TEME
TIME_SYSTEM    = UTC
MEAN_ELEMENT_THEORY = SGP/SGP4

EPOCH          = 2025-12-07T17:56:08.489472
MEAN_MOTION    = 14.18216815
ECCENTRICITY   = .00300334
INCLINATION    = 98.4480
RA_OF_ASC_NODE = 343.6163
ARG_OF_PERICENTER = 146.9389
MEAN_ANOMALY   = 213.3673

EPHEMERIS_TYPE = 0
CLASSIFICATION_TYPE = U
NORAD_CAT_ID   = 270312
ELEMENT_SET_NO = 999
REV_AT_EPOCH   = 31193
BSTAR          = .46689016E-3
MEAN_MOTION_DOT = .923E-5
MEAN_MOTION_DDOT = 0

CCSDS_OMM_VERS = 2.0
CREATION_DATE  = 
ORIGINATOR     = 

OBJECT_NAME    = UNKNOWN
OBJECT_ID      = 
CENTER_NAME    = EARTH
REF_FRAME      = TEME
TIME_SYSTEM    = UTC
MEAN_ELEMENT_THEORY = SGP/SGP4

EPOCH          = 2025-12-11T08:39:43.716960
MEAN_MOTION    = 12.95179573
ECCENTRICITY   = .0025704
INCLINATION    = 90.2462
RA_OF_ASC_NODE = 6.9608
ARG_OF_PERICENTER = 342.1349
MEAN_ANOMALY   = 17.8864

EPHEMERIS_TYPE = 0
CLASSIFICATION_TYPE = U
NORAD_CAT_ID   = 270313
ELEMENT_SET_NO = 999
REV_AT_EPOCH   = 28075
BSTAR          = .20616542E-2
MEAN_MOTION_DOT = .587E-5
MEAN_MOTION_DDOT = 0

CCSDS_OMM_VERS = 2.0
CREATION_DATE  = 
ORIGINATOR     = 

OBJECT_NAME    = UNKNOWN
OBJECT_ID      = 
CENTER_NAME    = EARTH
REF_FRAME      = TEME
TIME_SYSTEM    = UTC
MEAN_ELEMENT_THEORY = SGP/SGP4

EPOCH          = 2025-12-09T19:00:52.985088
MEAN_MOTION    = 12.94726583
ECCENTRICITY   = .00282575
INCLINATION    = 90.2432
RA_OF_ASC_NODE = 2.7841
ARG_OF_PERICENTER = 45.6159
MEAN_ANOMALY   = 314.7268

EPHEMERIS_TYPE = 0
CLASSIFICATION_TYPE = U
NORAD_CAT_ID   = 270314
ELEMENT_SET_NO = 999
REV_AT_EPOCH   = 26811
BSTAR          = .79266164E-3
MEAN_MOTION_DOT = .229E-5
MEAN_MOTION_DDOT = 0

CCSDS_OMM_VERS = 2.0
CREATION_DATE  = 
ORIGINATOR     = 

OBJECT_NAME    = UNKNOWN
OBJECT_ID      = 
CENTER_NAME    = EARTH
REF_FRAME      = TEME
TIME_SYSTEM    = UTC
MEAN_ELEMENT_THEORY = SGP/SGP4

EPOCH          = 2025-12-06T21:31:59.944512
MEAN_MOTION    = 14.20614234
ECCENTRICITY   = .00049939
INCLINATION    = 81.2115
RA_OF_ASC_NODE = 42.7127
ARG_OF_PERICENTER = 301.0385
MEAN_ANOMALY   = 59.0301

EPHEMERIS_TYPE = 0
CLASSIFICATION_TYPE = U
NORAD_CAT_ID   = 270316
ELEMENT_SET_NO = 999
REV_AT_EPOCH   = 26327
BSTAR          = .12855327E-2
MEAN_MOTION_DOT = .2778E-4
MEAN_MOTION_DDOT = 0

CCSDS_OMM_VERS = 2.0
CREATION_DATE  = 
ORIGINATOR     = 

OBJECT_NAME    = UNKNOWN
OBJECT_ID      = 
CENTER_NAME    = EARTH
REF_FRAME      = TEME
TIME_SYSTEM    = UTC
MEAN_ELEMENT_THEORY = SGP/SGP4

EPOCH          = 2025-12-08T18:52:00.604704
MEAN_MOTION    = 12.93311765
ECCENTRICITY   = .00248028
INCLINATION    = 90.2428
RA_OF_ASC_NODE = 3.1180
ARG_OF_PERICENTER = 47.1359
MEAN_ANOMALY   = 313.1837

EPHEMERIS_TYPE = 0
CLASSIFICATION_TYPE = U
NORAD_CAT_ID   = 270317
ELEMENT_SET_NO = 999
REV_AT_EPOCH   = 7018
BSTAR          = .91106768E-3
MEAN_MOTION_DOT = .257E-5
MEAN_MOTION_DDOT = 0

CCSDS_OMM_VERS = 2.0
CREATION_DATE  = 
ORIGINATOR     = 

OBJECT_NAME    = UNKNOWN
OBJECT_ID      = 
CENTER_NAME    = EARTH
REF_FRAME      = TEME
TIME_SYSTEM    = UTC
MEAN_ELEMENT_THEORY = SGP/SGP4

EPOCH          = 2025-12-11T15:11:57.855264
MEAN_MOTION    = 12.52243253
ECCENTRICITY   = .04744612
INCLINATION    = 103.0412
RA_OF_ASC_NODE = 128.7618
ARG_OF_PERICENTER = 316.3487
MEAN_ANOMALY   = 40.0954

EPHEMERIS_TYPE = 0
CLASSIFICATION_TYPE = U
NORAD_CAT_ID   = 270319
ELEMENT_SET_NO = 999
REV_AT_EPOCH   = 6219
BSTAR          = .46969809E-1
MEAN_MOTION_DOT = .1109E-3
MEAN_MOTION_DDOT = 0

CCSDS_OMM_VERS = 2.0
CREATION_DATE  = 
ORIGINATOR     = 

OBJECT_NAME    = UNKNOWN
OBJECT_ID      = 
CENTER_NAME    = EARTH
REF_FRAME      = TEME
TIME_SYSTEM    = UTC
MEAN_ELEMENT_THEORY = SGP/SGP4

EPOCH          = 2025-12-12T06:43:06.764160
MEAN_MOTION    = 12.99472953
ECCENTRICITY   = .00280564
INCLINATION    = 90.2384
RA_OF_ASC_NODE = 1.1539
ARG_OF_PERICENTER = 99.1799
MEAN_ANOMALY   = 261.2499

EPHEMERIS_TYPE = 0
CLASSIFICATION_TYPE = U
NORAD_CAT_ID   = 270320
ELEMENT_SET_NO = 999
REV_AT_EPOCH   = 22035
BSTAR          = .2491894E-2
MEAN_MOTION_DOT = .753E-5
MEAN_MOTION_DDOT = 0

CCSDS_OMM_VERS = 2.0
CREATION_DATE  = 
ORIGINATOR     = 

OBJECT_NAME    = UNKNOWN
OBJECT_ID      = 
CENTER_NAME    = EARTH
REF_FRAME      = TEME
TIME_SYSTEM    = UTC
MEAN_ELEMENT_THEORY = SGP/SGP4

EPOCH          = 2025-12-12T18:43:37.130304
MEAN_MOTION    = 12.92648848
ECCENTRICITY   = .00310037
INCLINATION    = 90.2429
RA_OF_ASC_NODE = 2.6188
ARG_OF_PERICENTER = 54.1740
MEAN_ANOMALY   = 306.2252

EPHEMERIS_TYPE = 0
CLASSIFICATION_TYPE = U
NORAD_CAT_ID   = 270321
ELEMENT_SET_NO = 999
REV_AT_EPOCH   = 24196
BSTAR          = .7111912E-3
MEAN_MOTION_DOT = .201E-5
MEAN_MOTION_DDOT = 0

CCSDS_OMM_VERS = 2.0
CREATION_DATE  = 
ORIGINATOR     = 

OBJECT_NAME    = UNKNOWN
OBJECT_ID      = 
CENTER_NAME    = EARTH
REF_FRAME      = TEME
TIME_SYSTEM    = UTC
MEAN_ELEMENT_THEORY = SGP/SGP4

EPOCH          = 2025-12-12T07:00:12.026304
MEAN_MOTION    = 12.93115689
ECCENTRICITY   = .00316335
INCLINATION    = 90.2396
RA_OF_ASC_NODE = 2.3609
ARG_OF_PERICENTER = 50.9663
MEAN_ANOMALY   = 309.4264

EPHEMERIS_TYPE = 0
CLASSIFICATION_TYPE = U
NORAD_CAT_ID   = 270322
ELEMENT_SET_NO = 999
REV_AT_EPOCH   = 21795
BSTAR          = .10217038E-2
MEAN_MOTION_DOT = .287E-5
MEAN_MOTION_DDOT = 0

CCSDS_OMM_VERS = 2.0
CREATION_DATE  = 
ORIGINATOR     = 

OBJECT_NAME    = UNKNOWN
OBJECT_ID      = 
CENTER_NAME    = EARTH
REF_FRAME      = TEME
TIME_SYSTEM    = UTC
MEAN_ELEMENT_THEORY = SGP/SGP4

EPOCH          = 2025-12-11T01:36:34.392672
MEAN_MOTION    = 14.44241008
ECCENTRICITY   = .00412789
INCLINATION    = 81.2832
RA_OF_ASC_NODE = 109.1659
ARG_OF_PERICENTER = 83.7957
MEAN_ANOMALY   = 276.7933

EPHEMERIS_TYPE = 0
CLASSIFICATION_TYPE = U
NORAD_CAT_ID   = 270323
ELEMENT_SET_NO = 999
REV_AT_EPOCH   = 27712
BSTAR          = .25743889E-2
MEAN_MOTION_DOT = .8952E-4
MEAN_MOTION_DDOT = 0

